STARLINK-37283          
1 68568U 26070AC  26099.83335647 -.01355370  56144-3 -29924-2 0  9990
2 68568  53.1585 228.8413 0000853  55.4249 239.7591 15.97409192  2381
