{
  "norad_id": 68568,
  "name": "STARLINK-37283",
  "history": [
    {
      "epoch": "2026-04-09T20:00:01.999008Z",
      "apogee_km": 282.1779382654504,
      "perigee_km": 281.04178545081777,
      "latitude_deg": -46.59941705659659,
      "longitude_deg": 38.77793429982377,
      "height_km": 297.75428642873004,
      "semi_major_axis_km": 6659.746861858133,
      "eccentricity": 8.53e-05,
      "inclination_deg": 53.1585,
      "raan_deg": 228.8413,
      "arg_perigee_deg": 55.4249,
      "mean_anomaly_deg": 239.7591,
      "mean_motion_rev_day": 15.97409192
    }
  ]
}